[{"OBJECT_NAME":"STARLINK-33687","OBJECT_ID":"2025-070AB","EPOCH":"2026-03-09T12:31:42.324960","MEAN_MOTION":15.27610982,"ECCENTRICITY":0.00014372,"INCLINATION":43.0025,"RA_OF_ASC_NODE":260.44,"ARG_OF_PERICENTER":266.2468,"MEAN_ANOMALY":93.822,"EPHEMERIS_TYPE":0,"CLASSIFICATION_TYPE":"U","NORAD_CAT_ID":63485,"ELEMENT_SET_NO":999,"REV_AT_EPOCH":5295,"BSTAR":0.00099376604,"MEAN_MOTION_DOT":0.00027211,"MEAN_MOTION_DDOT":0},{"OBJECT_NAME":"COSMOS 1862","OBJECT_ID":"1987-055A","EPOCH":"2026-03-09T22:37:02.390592","MEAN_MOTION":15.30492139,"ECCENTRICITY":0.00097484,"INCLINATION":82.4856,"RA_OF_ASC_NODE":47.1862,"ARG_OF_PERICENTER":26.6325,"MEAN_ANOMALY":333.5414,"EPHEMERIS_TYPE":0,"CLASSIFICATION_TYPE":"U","NORAD_CAT_ID":18152,"ELEMENT_SET_NO":999,"REV_AT_EPOCH":8987,"BSTAR":0.00034125048,"MEAN_MOTION_DOT":0.00010107,"MEAN_MOTION_DDOT":0}]
